ONEWEB-0352             
1 49216U 21083AG  26002.26260899  .00000349  00000+0  92077-3 0  9991
2 49216  87.8973 353.2171 0001437  77.5706 282.5584 13.13469186209248
ONEWEB-0354             
1 49217U 21083AH  26002.30145457  .00000024  00000+0  28177-4 0  9990
2 49217  87.9223 307.5238 0001590  85.8651 274.2664 13.20772151214919
ONEWEB-0355             
1 49218U 21083AJ  26001.98681236 -.00000217  00000+0 -62973-3 0  9991
2 49218  87.8974 353.2857 0001477  84.6140 275.5157 13.13467894209081
ONEWEB-0357             
1 49219U 21083AK  26002.29830134  .00000059  00000+0  11297-3 0  9995
2 49219  87.9222 307.5206 0001567  75.1054 285.0253 13.20771752214918
ONEWEB-0332             
1 49279U 21090A   26002.28185204 -.00000086  00000+0 -26684-3 0  9997
2 49279  87.9001 322.7716 0001768  72.3690 287.7633 13.14504489205782
ONEWEB-0347             
1 49280U 21090B   26002.21308061  .00000041  00000+0  67692-4 0  9994
2 49280  87.9217 307.5466 0001968  71.0539 289.0808 13.20771787209132
ONEWEB-0349             
1 49281U 21090C   26001.79009155  .00000072  00000+0  14413-3 0  9995
2 49281  87.9222 307.6296 0001697  76.7746 283.3577 13.20772340207866
ONEWEB-0353             
1 49282U 21090D   26002.27393887  .00000039  00000+0  70575-4 0  9993
2 49282  87.9013 322.7612 0001836  70.8918 289.2411 13.14501767205783
ONEWEB-0356             
1 49283U 21090E   26001.78851216  .00000130  00000+0  28786-3 0  9992
2 49283  87.9222 307.6234 0002623  84.0604 276.0828 13.20772967207868
ONEWEB-0358             
1 49284U 21090F   26002.19728972  .00000088  00000+0  18528-3 0  9996
2 49284  87.9224 307.5437 0001783  80.6322 279.5013 13.20771836208645
ONEWEB-0359             
1 49285U 21090G   26002.26988621  .00000035  00000+0  53522-4 0  9990
2 49285  87.9223 307.5272 0001587  92.2098 267.9217 13.20771959208635
ONEWEB-0360             
1 49286U 21090H   26001.57861525  .00000075  00000+0  15278-3 0  9996
2 49286  87.9214 307.6724 0001633  81.4468 278.6850 13.20772443207856
ONEWEB-0361             
1 49287U 21090J   26002.31724989  .00000104  00000+0  22296-3 0  9993
2 49287  87.9220 307.5223 0001907  80.1600 279.9749 13.20771831208408
ONEWEB-0362             
1 49288U 21090K   26001.91100769  .00000007  00000+0 -15519-4 0  9997
2 49288  87.9203 338.0685 0001478  79.2480 280.8819 13.19726154204983
ONEWEB-0363             
1 49289U 21090L   26002.25725912  .00000072  00000+0  14444-3 0  9995
2 49289  87.9223 307.5339 0002053  83.4093 276.7274 13.20773525208406
ONEWEB-0364             
1 49290U 21090M   26002.21938264  .00000018  00000+0  11700-4 0  9992
2 49290  87.9213 307.5630 0001825  78.5474 281.5864 13.20772745209532
ONEWEB-0365             
1 49291U 21090N   26002.29957410  .00000011  00000+0 -38523-5 0  9992
2 49291  87.9224 337.9603 0001695  80.4526 279.6798 13.19726125204546
