[{"OBJECT_NAME":"ONEWEB-0352","OBJECT_ID":"2021-083AG","EPOCH":"2026-01-02T06:18:09.416736","MEAN_MOTION":13.13469186,"ECCENTRICITY":0.0001437,"INCLINATION":87.8973,"RA_OF_ASC_NODE":353.2171,"ARG_OF_PERICENTER":77.5706,"MEAN_ANOMALY":282.5584,"EPHEMERIS_TYPE":0,"CLASSIFICATION_TYPE":"U","NORAD_CAT_ID":49216,"ELEMENT_SET_NO":999,"REV_AT_EPOCH":20924,"BSTAR":0.00092077087,"MEAN_MOTION_DOT":3.49e-6,"MEAN_MOTION_DDOT":0},{"OBJECT_NAME":"ONEWEB-0354","OBJECT_ID":"2021-083AH","EPOCH":"2026-01-02T07:14:05.674848","MEAN_MOTION":13.20772151,"ECCENTRICITY":0.000159,"INCLINATION":87.9223,"RA_OF_ASC_NODE":307.5238,"ARG_OF_PERICENTER":85.8651,"MEAN_ANOMALY":274.2664,"EPHEMERIS_TYPE":0,"CLASSIFICATION_TYPE":"U","NORAD_CAT_ID":49217,"ELEMENT_SET_NO":999,"REV_AT_EPOCH":21491,"BSTAR":2.8177143e-5,"MEAN_MOTION_DOT":2.4e-7,"MEAN_MOTION_DDOT":0},{"OBJECT_NAME":"ONEWEB-0355","OBJECT_ID":"2021-083AJ","EPOCH":"2026-01-01T23:41:00.587904","MEAN_MOTION":13.13467894,"ECCENTRICITY":0.0001477,"INCLINATION":87.8974,"RA_OF_ASC_NODE":353.2857,"ARG_OF_PERICENTER":84.614,"MEAN_ANOMALY":275.5157,"EPHEMERIS_TYPE":0,"CLASSIFICATION_TYPE":"U","NORAD_CAT_ID":49218,"ELEMENT_SET_NO":999,"REV_AT_EPOCH":20908,"BSTAR":-0.00062973,"MEAN_MOTION_DOT":-2.17e-6,"MEAN_MOTION_DDOT":0},{"OBJECT_NAME":"ONEWEB-0357","OBJECT_ID":"2021-083AK","EPOCH":"2026-01-02T07:09:33.235776","MEAN_MOTION":13.20771752,"ECCENTRICITY":0.00015679,"INCLINATION":87.9222,"RA_OF_ASC_NODE":307.5206,"ARG_OF_PERICENTER":75.1054,"MEAN_ANOMALY":285.0253,"EPHEMERIS_TYPE":0,"CLASSIFICATION_TYPE":"U","NORAD_CAT_ID":49219,"ELEMENT_SET_NO":999,"REV_AT_EPOCH":21491,"BSTAR":0.00011297077,"MEAN_MOTION_DOT":5.9e-7,"MEAN_MOTION_DDOT":0},{"OBJECT_NAME":"ONEWEB-0332","OBJECT_ID":"2021-090A","EPOCH":"2026-01-02T06:45:52.016256","MEAN_MOTION":13.14504489,"ECCENTRICITY":0.00017681,"INCLINATION":87.9001,"RA_OF_ASC_NODE":322.7716,"ARG_OF_PERICENTER":72.369,"MEAN_ANOMALY":287.7633,"EPHEMERIS_TYPE":0,"CLASSIFICATION_TYPE":"U","NORAD_CAT_ID":49279,"ELEMENT_SET_NO":999,"REV_AT_EPOCH":20578,"BSTAR":-0.00026683806,"MEAN_MOTION_DOT":-8.6e-7,"MEAN_MOTION_DDOT":0},{"OBJECT_NAME":"ONEWEB-0347","OBJECT_ID":"2021-090B","EPOCH":"2026-01-02T05:06:50.164704","MEAN_MOTION":13.20771787,"ECCENTRICITY":0.00019689,"INCLINATION":87.9217,"RA_OF_ASC_NODE":307.5466,"ARG_OF_PERICENTER":71.0539,"MEAN_ANOMALY":289.0808,"EPHEMERIS_TYPE":0,"CLASSIFICATION_TYPE":"U","NORAD_CAT_ID":49280,"ELEMENT_SET_NO":999,"REV_AT_EPOCH":20913,"BSTAR":6.7691916e-5,"MEAN_MOTION_DOT":4.1e-7,"MEAN_MOTION_DDOT":0},{"OBJECT_NAME":"ONEWEB-0349","OBJECT_ID":"2021-090C","EPOCH":"2026-01-01T18:57:43.909920","MEAN_MOTION":13.2077234,"ECCENTRICITY":0.00016975,"INCLINATION":87.9222,"RA_OF_ASC_NODE":307.6296,"ARG_OF_PERICENTER":76.7746,"MEAN_ANOMALY":283.3577,"EPHEMERIS_TYPE":0,"CLASSIFICATION_TYPE":"U","NORAD_CAT_ID":49281,"ELEMENT_SET_NO":999,"REV_AT_EPOCH":20786,"BSTAR":0.00014413157,"MEAN_MOTION_DOT":7.2e-7,"MEAN_MOTION_DDOT":0},{"OBJECT_NAME":"ONEWEB-0353","OBJECT_ID":"2021-090D","EPOCH":"2026-01-02T06:34:28.318368","MEAN_MOTION":13.14501767,"ECCENTRICITY":0.00018368,"INCLINATION":87.9013,"RA_OF_ASC_NODE":322.7612,"ARG_OF_PERICENTER":70.8918,"MEAN_ANOMALY":289.2411,"EPHEMERIS_TYPE":0,"CLASSIFICATION_TYPE":"U","NORAD_CAT_ID":49282,"ELEMENT_SET_NO":999,"REV_AT_EPOCH":20578,"BSTAR":7.0574557e-5,"MEAN_MOTION_DOT":3.9e-7,"MEAN_MOTION_DDOT":0},{"OBJECT_NAME":"ONEWEB-0356","OBJECT_ID":"2021-090E","EPOCH":"2026-01-01T18:55:27.450624","MEAN_MOTION":13.20772967,"ECCENTRICITY":0.0002623,"INCLINATION":87.9222,"RA_OF_ASC_NODE":307.6234,"ARG_OF_PERICENTER":84.0604,"MEAN_ANOMALY":276.0828,"EPHEMERIS_TYPE":0,"CLASSIFICATION_TYPE":"U","NORAD_CAT_ID":49283,"ELEMENT_SET_NO":999,"REV_AT_EPOCH":20786,"BSTAR":0.00028785968,"MEAN_MOTION_DOT":1.3e-6,"MEAN_MOTION_DDOT":0},{"OBJECT_NAME":"ONEWEB-0358","OBJECT_ID":"2021-090F","EPOCH":"2026-01-02T04:44:05.831808","MEAN_MOTION":13.20771836,"ECCENTRICITY":0.00017838,"INCLINATION":87.9224,"RA_OF_ASC_NODE":307.5437,"ARG_OF_PERICENTER":80.6322,"MEAN_ANOMALY":279.5013,"EPHEMERIS_TYPE":0,"CLASSIFICATION_TYPE":"U","NORAD_CAT_ID":49284,"ELEMENT_SET_NO":999,"REV_AT_EPOCH":20864,"BSTAR":0.00018528133,"MEAN_MOTION_DOT":8.8e-7,"MEAN_MOTION_DDOT":0},{"OBJECT_NAME":"ONEWEB-0359","OBJECT_ID":"2021-090G","EPOCH":"2026-01-02T06:28:38.168544","MEAN_MOTION":13.20771959,"ECCENTRICITY":0.00015872,"INCLINATION":87.9223,"RA_OF_ASC_NODE":307.5272,"ARG_OF_PERICENTER":92.2098,"MEAN_ANOMALY":267.9217,"EPHEMERIS_TYPE":0,"CLASSIFICATION_TYPE":"U","NORAD_CAT_ID":49285,"ELEMENT_SET_NO":999,"REV_AT_EPOCH":20863,"BSTAR":5.3521687e-5,"MEAN_MOTION_DOT":3.5e-7,"MEAN_MOTION_DDOT":0},{"OBJECT_NAME":"ONEWEB-0360","OBJECT_ID":"2021-090H","EPOCH":"2026-01-01T13:53:12.357600","MEAN_MOTION":13.20772443,"ECCENTRICITY":0.0001633,"INCLINATION":87.9214,"RA_OF_ASC_NODE":307.6724,"ARG_OF_PERICENTER":81.4468,"MEAN_ANOMALY":278.685,"EPHEMERIS_TYPE":0,"CLASSIFICATION_TYPE":"U","NORAD_CAT_ID":49286,"ELEMENT_SET_NO":999,"REV_AT_EPOCH":20785,"BSTAR":0.00015278,"MEAN_MOTION_DOT":7.5e-7,"MEAN_MOTION_DDOT":0},{"OBJECT_NAME":"ONEWEB-0361","OBJECT_ID":"2021-090J","EPOCH":"2026-01-02T07:36:50.390496","MEAN_MOTION":13.20771831,"ECCENTRICITY":0.00019077,"INCLINATION":87.922,"RA_OF_ASC_NODE":307.5223,"ARG_OF_PERICENTER":80.16,"MEAN_ANOMALY":279.9749,"EPHEMERIS_TYPE":0,"CLASSIFICATION_TYPE":"U","NORAD_CAT_ID":49287,"ELEMENT_SET_NO":999,"REV_AT_EPOCH":20840,"BSTAR":0.00022295657,"MEAN_MOTION_DOT":1.04e-6,"MEAN_MOTION_DDOT":0},{"OBJECT_NAME":"ONEWEB-0362","OBJECT_ID":"2021-090K","EPOCH":"2026-01-01T21:51:51.064416","MEAN_MOTION":13.19726154,"ECCENTRICITY":0.0001478,"INCLINATION":87.9203,"RA_OF_ASC_NODE":338.0685,"ARG_OF_PERICENTER":79.248,"MEAN_ANOMALY":280.8819,"EPHEMERIS_TYPE":0,"CLASSIFICATION_TYPE":"U","NORAD_CAT_ID":49288,"ELEMENT_SET_NO":999,"REV_AT_EPOCH":20498,"BSTAR":-1.5519e-5,"MEAN_MOTION_DOT":7.0e-8,"MEAN_MOTION_DDOT":0},{"OBJECT_NAME":"ONEWEB-0363","OBJECT_ID":"2021-090L","EPOCH":"2026-01-02T06:10:27.187968","MEAN_MOTION":13.20773525,"ECCENTRICITY":0.00020539,"INCLINATION":87.9223,"RA_OF_ASC_NODE":307.5339,"ARG_OF_PERICENTER":83.4093,"MEAN_ANOMALY":276.7274,"EPHEMERIS_TYPE":0,"CLASSIFICATION_TYPE":"U","NORAD_CAT_ID":49289,"ELEMENT_SET_NO":999,"REV_AT_EPOCH":20840,"BSTAR":0.00014444399,"MEAN_MOTION_DOT":7.2e-7,"MEAN_MOTION_DDOT":0},{"OBJECT_NAME":"ONEWEB-0364","OBJECT_ID":"2021-090M","EPOCH":"2026-01-02T05:15:54.660096","MEAN_MOTION":13.20772745,"ECCENTRICITY":0.00018252,"INCLINATION":87.9213,"RA_OF_ASC_NODE":307.563,"ARG_OF_PERICENTER":78.5474,"MEAN_ANOMALY":281.5864,"EPHEMERIS_TYPE":0,"CLASSIFICATION_TYPE":"U","NORAD_CAT_ID":49290,"ELEMENT_SET_NO":999,"REV_AT_EPOCH":20953,"BSTAR":1.1699854e-5,"MEAN_MOTION_DOT":1.8e-7,"MEAN_MOTION_DDOT":0},{"OBJECT_NAME":"ONEWEB-0365","OBJECT_ID":"2021-090N","EPOCH":"2026-01-02T07:11:23.202240","MEAN_MOTION":13.19726125,"ECCENTRICITY":0.00016955,"INCLINATION":87.9224,"RA_OF_ASC_NODE":337.9603,"ARG_OF_PERICENTER":80.4526,"MEAN_ANOMALY":279.6798,"EPHEMERIS_TYPE":0,"CLASSIFICATION_TYPE":"U","NORAD_CAT_ID":49291,"ELEMENT_SET_NO":999,"REV_AT_EPOCH":20454,"BSTAR":-3.852253e-6,"MEAN_MOTION_DOT":1.1e-7,"MEAN_MOTION_DDOT":0}]
